[{"OBJECT_NAME":"STARLINK-6098","OBJECT_ID":"2023-083AG","EPOCH":"2026-03-09T22:00:01.999584","MEAN_MOTION":15.09631398,"ECCENTRICITY":0.00020082,"INCLINATION":43.0008,"RA_OF_ASC_NODE":67.7459,"ARG_OF_PERICENTER":259.638,"MEAN_ANOMALY":48.5969,"EPHEMERIS_TYPE":0,"CLASSIFICATION_TYPE":"U","NORAD_CAT_ID":56906,"ELEMENT_SET_NO":999,"REV_AT_EPOCH":572,"BSTAR":0.004417048,"MEAN_MOTION_DOT":0.00072804,"MEAN_MOTION_DDOT":0},{"OBJECT_NAME":"CZ-6A DEB","OBJECT_ID":"2022-151AAA","EPOCH":"2026-03-09T04:57:45.021312","MEAN_MOTION":15.12096834,"ECCENTRICITY":0.00549442,"INCLINATION":98.6194,"RA_OF_ASC_NODE":161.6622,"ARG_OF_PERICENTER":147.3471,"MEAN_ANOMALY":213.1173,"EPHEMERIS_TYPE":0,"CLASSIFICATION_TYPE":"U","NORAD_CAT_ID":55878,"ELEMENT_SET_NO":999,"REV_AT_EPOCH":16515,"BSTAR":0.0054624845,"MEAN_MOTION_DOT":0.00098665,"MEAN_MOTION_DDOT":0}]
